NORAD_CAT_ID,OBJECT_NAME,OBJECT_TYPE,EPOCH,MEAN_MOTION,ECCENTRICITY,INCLINATION,RA_OF_ASC_NODE,ARG_OF_PERICENTER,MEAN_ANOMALY,BSTAR,MEAN_MOTION_DOT,MEAN_MOTION_DDOT,TLE_LINE0,TLE_LINE1,TLE_LINE2,SEMIMAJOR_AXIS,PERIOD,APOGEE,PERIGEE,DECAYED
52854.0,STARLINK-4204,PAYLOAD,2023-05-29 13:41:22,15.08843412,8.34e-05,53.2164,261.1665,87.968,272.1408,8.8686e-05,1.124e-05,0.0,0 STARLINK-4204,1 52854U 22062AA  23149.57040508  .00001124  00000-0  88686-4 0  9992,2 52854  53.2164 261.1665 0000834  87.9680 272.1408 15.08843412 52677,6917.87,95.437,540.312,539.158,0.0
52854.0,STARLINK-4204,PAYLOAD,2023-05-29 16:52:09,15.08846592,8.57e-05,53.2164,260.5712,89.9231,270.1859,0.00010351,1.36e-05,0.0,0 STARLINK-4204,1 52854U 22062AA  23149.70288212  .00001360  00000-0  10351-3 0  9998,2 52854  53.2164 260.5712 0000857  89.9231 270.1859 15.08846592 52694,6917.86,95.437,540.318,539.132,0.0
52854.0,STARLINK-4204,PAYLOAD,2023-05-30 00:49:05,15.08839475,8.48e-05,53.2162,259.0841,90.3071,269.8019,4.2098e-05,3.82e-06,0.0,0 STARLINK-4204,1 52854U 22062AA  23150.03408753  .00000382  00000-0  42098-4 0  9997,2 52854  53.2162 259.0841 0000848  90.3071 269.8019 15.08839475 53232,6917.882,95.438,540.334,539.16,0.0
52854.0,STARLINK-4204,PAYLOAD,2023-05-30 11:56:47,15.08838648,8.92e-05,53.2164,257.0019,98.2964,261.813,8.4001e-06,-1.54e-06,0.0,0 STARLINK-4204,1 52854U 22062AA  23150.49776920 -.00000154  00000-0  84001-5 0  9990,2 52854  53.2164 257.0019 0000892  98.2964 261.8130 15.08838648 52816,6917.885,95.438,540.367,539.132,0.0
52854.0,STARLINK-4204,PAYLOAD,2023-05-30 16:42:56,15.08844588,8.22e-05,53.2164,256.1092,106.3066,253.8017,-1.4528e-05,-5.19e-06,0.0,0 STARLINK-4204,1 52854U 22062AA  23150.69648535 -.00000519  00000-0 -14528-4 0  9994,2 52854  53.2164 256.1092 0000822 106.3066 253.8017 15.08844588 52842,6917.866,95.437,540.3,539.163,0.0
52854.0,STARLINK-4204,PAYLOAD,2023-05-31 10:12:10,15.08858632,9.23e-05,53.2162,252.8382,102.3959,257.7137,-0.00020774,-3.594e-05,0.0,0 STARLINK-4204,1 52854U 22062AA  23151.42512046 -.00003594  00000-0 -20774-3 0  9998,2 52854  53.2162 252.8382 0000923 102.3959 257.7137 15.08858632 53442,6917.823,95.436,540.327,539.05,0.0
52854.0,STARLINK-4204,PAYLOAD,2023-05-31 13:22:56,15.0884612,8.98e-05,53.2163,252.2437,113.3947,246.714,3.2468e-05,2.29e-06,0.0,0 STARLINK-4204,1 52854U 22062AA  23151.55760206  .00000229  00000-0  32468-4 0  9999,2 52854  53.2163 252.2437 0000898 113.3947 246.7140 15.08846120 52976,6917.862,95.437,540.348,539.105,0.0
52854.0,STARLINK-4204,PAYLOAD,2023-06-01 10:02:58,15.08834209,7.87e-05,53.2163,248.3789,105.4095,254.6985,4.0204e-05,3.52e-06,0.0,0 STARLINK-4204,1 52854U 22062AA  23152.41873011  .00000352  00000-0  40204-4 0  9998,2 52854  53.2163 248.3789 0000787 105.4095 254.6985 15.08834209 53101,6917.898,95.438,540.308,539.219,0.0
52854.0,STARLINK-4204,PAYLOAD,2023-06-02 13:04:32,15.0883528,8.09e-05,53.2161,243.3241,96.3208,263.7876,-1.2443e-05,-4.86e-06,0.0,0 STARLINK-4204,1 52854U 22062AA  23153.54481498 -.00000486  00000-0 -12443-4 0  9991,2 52854  53.2161 243.3241 0000809  96.3208 263.7876 15.08835280 53768,6917.895,95.438,540.319,539.2,0.0
52854.0,STARLINK-4204,PAYLOAD,2023-06-02 16:15:18,15.08844553,8.35e-05,53.2159,242.73,87.6009,272.5079,-0.00011583,-2.131e-05,0.0,0 STARLINK-4204,1 52854U 22062AA  23153.67729306 -.00002131  00000-0 -11583-3 0  9990,2 52854  53.2159 242.7300 0000835  87.6009 272.5079 15.08844553 53299,6917.866,95.437,540.309,539.154,0.0
52854.0,STARLINK-4204,PAYLOAD,2023-06-03 11:19:56,15.08835217,8.07e-05,53.2162,239.1608,86.9165,273.1919,-7.2257e-06,-4.03e-06,0.0,0 STARLINK-4204,1 52854U 22062AA  23154.47217949 -.00000403  00000-0 -72257-5 0  9991,2 52854  53.2162 239.1608 0000807  86.9165 273.1919 15.08835217 53419,6917.895,95.438,540.318,539.202,0.0
52854.0,STARLINK-4204,PAYLOAD,2023-06-03 22:27:38,15.08838397,9.68e-05,53.216,237.0798,78.7062,281.4039,5.2838e-05,5.53e-06,0.0,0 STARLINK-4204,1 52854U 22062AA  23154.93585727  .00000553  00000-0  52838-4 0  9990,2 52854  53.2160 237.0798 0000968  78.7062 281.4039 15.08838397 53975,6917.885,95.438,540.42,539.081,0.0
52854.0,STARLINK-4204,PAYLOAD,2023-06-04 12:46:05,15.0884162,8.56e-05,53.2163,234.4031,75.2632,284.8455,0.0001287,1.761e-05,0.0,0 STARLINK-4204,1 52854U 22062AA  23155.53201353  .00001761  00000-0  12870-3 0  9990,2 52854  53.2163 234.4031 0000856  75.2632 284.8455 15.08841620 53578,6917.875,95.437,540.333,539.148,0.0
52854.0,STARLINK-4204,PAYLOAD,2023-06-05 04:39:58,15.08831419,8.1e-05,53.2155,231.4313,82.4449,277.6635,6.3261e-05,7.19e-06,0.0,0 STARLINK-4204,1 52854U 22062AA  23156.19442324  .00000719  00000-0  63261-4 0  9991,2 52854  53.2155 231.4313 0000810  82.4449 277.6635 15.08831419 54166,6917.907,95.438,540.332,539.211,0.0
52854.0,STARLINK-4204,PAYLOAD,2023-06-05 12:36:53,15.08836066,7.76e-05,53.2158,229.9444,81.6925,278.4155,2.2413e-05,6.9e-07,0.0,0 STARLINK-4204,1 52854U 22062AA  23156.52562299  .00000069  00000-0  22413-4 0  9994,2 52854  53.2158 229.9444 0000776  81.6925 278.4155 15.08836066 53727,6917.892,95.438,540.294,539.221,0.0
52854.0,STARLINK-4204,PAYLOAD,2023-06-06 07:41:30,15.08847596,8e-05,53.2159,226.3758,79.2402,280.868,5.7803e-05,6.33e-06,0.0,0 STARLINK-4204,1 52854U 22062AA  23157.32049351  .00000633  00000-0  57803-4 0  9990,2 52854  53.2159 226.3758 0000800  79.2402 280.8680 15.08847596 54336,6917.857,95.437,540.276,539.169,0.0
52854.0,STARLINK-4204,PAYLOAD,2023-06-06 10:52:16,15.08850239,7.79e-05,53.2159,225.781,79.5727,280.5353,7.6275e-05,9.27e-06,0.0,0 STARLINK-4204,1 52854U 22062AA  23157.45297052  .00000927  00000-0  76275-4 0  9997,2 52854  53.2159 225.7810 0000779  79.5727 280.5353 15.08850239 53865,6917.849,95.437,540.253,539.175,0.0
52854.0,STARLINK-4204,PAYLOAD,2023-06-07 02:46:08,15.08837594,6.84e-05,53.2161,222.8074,79.5209,280.586,9.3385e-05,1.199e-05,0.0,0 STARLINK-4204,1 52854U 22062AA  23158.11537581  .00001199  00000-0  93385-4 0  9998,2 52854  53.2161 222.8074 0000684  79.5209 280.5860 15.08837594 54456,6917.888,95.438,540.226,539.28,0.0
52854.0,STARLINK-4204,PAYLOAD,2023-06-07 09:07:41,15.0883688,6.86e-05,53.2161,221.6181,78.578,281.5289,8.1018e-05,1.002e-05,0.0,0 STARLINK-4204,1 52854U 22062AA  23158.38033723  .00001002  00000-0  81018-4 0  9999,2 52854  53.2161 221.6181 0000686  78.5780 281.5289 15.08836880 54001,6917.89,95.438,540.229,539.28,0.0
52854.0,STARLINK-4204,PAYLOAD,2023-06-08 08:58:28,15.08841665,6.94e-05,53.216,217.1575,75.9942,284.1127,-6.3747e-06,-3.89e-06,0.0,0 STARLINK-4204,1 52854U 22062AA  23159.37393609 -.00000389  00000-0 -63747-5 0  9990,2 52854  53.2160 217.1575 0000694  75.9942 284.1127 15.08841665 54644,6917.875,95.437,540.22,539.26,0.0
52854.0,STARLINK-4204,PAYLOAD,2023-06-08 10:33:51,15.08843956,6.9e-05,53.2161,216.8608,67.9421,292.1644,-1.0284e-05,-4.51e-06,0.0,0 STARLINK-4204,1 52854U 22062AA  23159.44017468 -.00000451  00000-0 -10284-4 0  9991,2 52854  53.2161 216.8608 0000690  67.9421 292.1644 15.08843956 54162,6917.868,95.437,540.211,539.256,0.0
52854.0,STARLINK-4204,PAYLOAD,2023-06-09 10:24:38,15.08837592,6.92e-05,53.2154,212.3997,87.0434,273.0637,5.1278e-05,5.29e-06,0.0,0 STARLINK-4204,1 52854U 22062AA  23160.43377609  .00000529  00000-0  51278-4 0  9990,2 52854  53.2154 212.3997 0000692  87.0434 273.0637 15.08837592 54805,6917.888,95.438,540.231,539.274,0.0
52854.0,STARLINK-4204,PAYLOAD,2023-06-09 19:56:57,15.08835553,7.13e-05,53.2152,210.6147,78.7868,281.3204,2.7975e-05,1.58e-06,0.0,0 STARLINK-4204,1 52854U 22062AA  23160.83121865  .00000158  00000-0  27975-4 0  9990,2 52854  53.2152 210.6147 0000713  78.7868 281.3204 15.08835553 54372,6917.894,95.438,540.252,539.266,0.0
52854.0,STARLINK-4204,PAYLOAD,2023-06-10 10:15:25,15.08836552,7.3e-05,53.2155,207.9397,87.9663,272.1413,2.6486e-05,1.34e-06,0.0,0 STARLINK-4204,1 52854U 22062AA  23161.42737983  .00000134  00000-0  26486-4 0  9990,2 52854  53.2155 207.9397 0000730  87.9663 272.1413 15.08836552 54465,6917.891,95.438,540.261,539.251,0.0
52854.0,STARLINK-4204,PAYLOAD,2023-06-10 19:47:44,15.08834207,7.25e-05,53.2154,206.1556,86.1468,273.9607,1.3153e-05,-7.8e-07,0.0,0 STARLINK-4204,1 52854U 22062AA  23161.82482287 -.00000078  00000-0  13153-4 0  9993,2 52854  53.2154 206.1556 0000725  86.1468 273.9607 15.08834207 54526,6917.898,95.438,540.265,539.262,0.0
52854.0,STARLINK-4204,PAYLOAD,2023-06-11 03:44:40,15.08832955,7.25e-05,53.2154,204.6688,88.1322,271.9753,-3.7171e-06,-3.47e-06,0.0,0 STARLINK-4204,1 52854U 22062AA  23162.15602559 -.00000347  00000-0 -37171-5 0  9993,2 52854  53.2154 204.6688 0000725  88.1322 271.9753 15.08832955 55064,6917.902,95.438,540.268,539.265,0.0
52854.0,STARLINK-4204,PAYLOAD,2023-06-11 10:06:13,15.08834502,7.31e-05,53.2153,203.4794,87.7121,272.3955,9.2384e-06,-1.41e-06,0.0,0 STARLINK-4204,1 52854U 22062AA  23162.42098519 -.00000141  00000-0  92384-5 0  9996,2 52854  53.2153 203.4794 0000731  87.7121 272.3955 15.08834502 54616,6917.897,95.438,540.268,539.256,0.0
52854.0,STARLINK-4204,PAYLOAD,2023-06-11 19:38:31,15.08837967,7.38e-05,53.2153,201.6951,87.7241,272.3836,5.4925e-05,5.87e-06,0.0,0 STARLINK-4204,1 52854U 22062AA  23162.81842256  .00000587  00000-0  54925-4 0  9995,2 52854  53.2153 201.6951 0000738  87.7241 272.3836 15.08837967 54673,6917.887,95.438,540.262,539.241,0.0
52854.0,STARLINK-4204,PAYLOAD,2023-06-12 02:00:04,15.08839616,7.13e-05,53.2153,200.5051,91.0385,269.0689,9.7246e-05,1.26e-05,0.0,0 STARLINK-4204,1 52854U 22062AA  23163.08338029  .00001260  00000-0  97246-4 0  9995,2 52854  53.2153 200.5051 0000713  91.0385 269.0689 15.08839616 55204,6917.882,95.438,540.24,539.253,0.0
52854.0,STARLINK-4204,PAYLOAD,2023-06-12 22:40:05,15.08833803,8.04e-05,53.215,196.6388,81.2135,278.8948,6.2003e-05,6.99e-06,0.0,0 STARLINK-4204,1 52854U 22062AA  23163.94450637  .00000699  00000-0  62003-4 0  9998,2 52854  53.2150 196.6388 0000804  81.2135 278.8948 15.08833803 54841,6917.899,95.438,540.321,539.208,0.0
